OBJECT_NAME,OBJECT_ID,EPOCH,MEAN_MOTION,ECCENTRICITY,INCLINATION,RA_OF_ASC_NODE,ARG_OF_PERICENTER,MEAN_ANOMALY,EPHEMERIS_TYPE,CLASSIFICATION_TYPE,NORAD_CAT_ID,ELEMENT_SET_NO,REV_AT_EPOCH,BSTAR,MEAN_MOTION_DOT,MEAN_MOTION_DDOT
STARLINK-4461,2022-099AQ,2022-08-29T16:00:00.999936,15.65810740,.0001701,97.6557,0.4698,68.6265,19.7703,0,U,53503,999,288,-.13622E-1,-.1236877E-1,0
STARLINK-4448,2022-099AR,2022-08-29T16:00:00.999936,15.65788636,.0001748,97.6558,0.4694,61.4727,25.6473,0,U,53504,999,288,-.13508E-1,-.1226594E-1,0
STARLINK-4446,2022-099AS,2022-08-29T16:00:00.999936,15.65714866,.000169,97.6558,0.4701,65.8567,24.5213,0,U,53505,999,288,-.11822E-1,-.1067476E-1,0
STARLINK-4437,2022-099AT,2022-08-29T16:00:00.999936,15.65860772,.0001916,97.6558,0.4697,62.5901,26.4249,0,U,53506,999,288,-.14269E-1,-.12919E-1,0
STARLINK-4444,2022-099AU,2022-08-29T16:00:00.999936,15.65836052,.0001797,97.6557,0.4700,60.3144,30.6445,0,U,53507,999,288,-.13552E-1,-.1232325E-1,0
STARLINK-4443,2022-099AV,2022-08-29T16:00:00.999936,15.65819136,.0001844,97.6559,0.4698,55.4971,34.1831,0,U,53508,999,288,-.13521E-1,-.1229055E-1,0
STARLINK-4402,2022-099AW,2022-08-29T16:00:00.999936,15.65845952,.0001847,97.6558,0.4701,55.6202,36.6208,0,U,53509,999,288,-.13476E-1,-.1226562E-1,0
STARLINK-4441,2022-099AX,2022-08-29T16:00:00.999936,15.65840284,.000191,97.6558,0.4697,58.5712,33.0292,0,U,53510,999,288,-.13505E-1,-.1228715E-1,0
FALCON 9 DEB,2022-099AY,2022-08-29T09:30:30.479904,15.89569153,.0009816,97.6792,0.5575,220.9676,139.0859,0,U,53511,999,262,.44371E-3,.128949E-2,.83004E-5
FALCON 9 DEB,2022-099AZ,2022-08-29T09:23:49.551072,15.90170422,.0007383,97.6770,0.5586,217.5752,142.5005,0,U,53512,999,262,.47096E-3,.140876E-2,.94968E-5
FALCON 9 DEB,2022-099BA,2022-08-29T13:37:59.744640,15.91616686,.0010481,97.6733,0.7811,200.9773,159.1071,0,U,53513,999,265,.57993E-3,.187433E-2,.15246E-4
FALCON 9 DEB,2022-099BB,2022-08-29T13:33:45.011520,15.91850773,.0009768,97.6717,0.7820,185.2922,174.8249,0,U,53514,999,265,.5549E-3,.18137E-2,.14452E-4
2022-100A,2022-100A,2022-08-29T10:00:30.959136,15.22802582,.0007815,35.0009,146.8483,344.4141,15.6339,0,U,53522,999,148,.24591E-3,.5861E-4,0
2022-100B,2022-100B,2022-08-29T08:22:01.352064,15.23473865,.0008381,35.0016,147.2367,347.4307,12.6199,0,U,53523,999,147,.39544E-3,.9645E-4,0
2022-100C,2022-100C,2022-08-29T05:49:14.718144,15.22840110,.0005955,35.0013,147.9019,342.1977,156.9686,0,U,53524,999,140,.2907E-3,.6942E-4,0
2022-100D,2022-100D,2022-08-29T09:53:25.374336,15.23799574,.0008551,35.0029,146.8111,356.2917,3.7748,0,U,53525,999,143,.33343E-3,.8205E-4,0
2022-100E,2022-100E,2022-08-29T09:58:27.517728,15.22727669,.0005799,35.0029,146.8399,351.9933,8.0683,0,U,53526,999,143,.15953E-3,.3778E-4,0
STARLINK-4511,2022-101A,2022-08-29T14:00:01.000224,15.76555957,.0003241,53.2176,106.2989,4.2877,161.1514,0,U,53527,999,130,-.82878E-2,-.1196304E-1,0
STARLINK-4503,2022-101B,2022-08-29T14:00:01.000224,15.76543204,.0003285,53.2176,106.3010,353.4003,171.5076,0,U,53528,999,130,-.83115E-2,-.1198762E-1,0
STARLINK-4478,2022-101C,2022-08-29T14:00:01.000224,15.76572754,.0003187,53.2176,106.2981,359.8646,166.0963,0,U,53529,999,130,-.82923E-2,-.1197644E-1,0
STARLINK-4482,2022-101D,2022-08-29T14:00:01.000224,15.76608605,.0003232,53.2176,106.2967,356.4278,170.5609,0,U,53530,999,130,-.82884E-2,-.1198878E-1,0
STARLINK-4487,2022-101E,2022-08-29T14:00:01.000224,15.76591290,.0003238,53.2176,106.2971,355.9049,170.5682,0,U,53531,999,130,-.82936E-2,-.1198725E-1,0
STARLINK-4483,2022-101F,2022-08-29T14:00:01.000224,15.76624844,.0003229,53.2176,106.2956,357.3774,170.1304,0,U,53532,999,130,-.82804E-2,-.1198621E-1,0
STARLINK-4493,2022-101G,2022-08-29T14:00:01.000224,15.76641401,.0003429,53.2176,106.2940,354.6146,173.4107,0,U,53533,999,130,-.82737E-2,-.1198678E-1,0
STARLINK-4488,2022-101H,2022-08-29T14:00:01.000224,15.76708907,.0003307,53.2176,106.2901,3.5322,166.5487,0,U,53534,999,130,-.82326E-2,-.1196515E-1,0
STARLINK-4138,2022-101J,2022-08-29T14:00:01.000224,15.76675966,.0003158,53.2176,106.2920,1.2547,167.7957,0,U,53535,999,130,-.82542E-2,-.1197637E-1,0
STARLINK-4053,2022-101K,2022-08-29T14:00:01.000224,15.76743022,.0003067,53.2176,106.2885,1.5407,169.5698,0,U,53536,999,130,-.82292E-2,-.1197545E-1,0
STARLINK-4120,2022-101L,2022-08-29T14:00:01.000224,15.76659833,.0003053,53.2176,106.2933,358.3390,170.1952,0,U,53537,999,130,-.82684E-2,-.1198631E-1,0
STARLINK-4118,2022-101M,2022-08-29T14:00:01.000224,15.76761668,.0003036,53.2176,106.2875,2.6721,168.9429,0,U,53538,999,130,-.82221E-2,-.1197496E-1,0
STARLINK-4123,2022-101N,2022-08-29T14:00:01.000224,15.76691792,.0003008,53.2176,106.2911,6.3718,163.1958,0,U,53539,999,130,-.82399E-2,-.1196452E-1,0
